TIANQI-39               
1 67478U 26010C   26037.29895366  .00000366  00000+0  26541-3 0  9992
2 67478  44.9842 305.6745 0016496  72.1862 288.0775 14.13053936  3046
TIANQI-40               
1 67479U 26010D   26037.29490706  .00000420  00000+0  29034-3 0  9993
2 67479  44.9837 305.6492 0012363  73.1190 287.1003 14.13802640  3042
SZ-20 MODULE            
1 67481U 25082C   26037.00644919  .00030646  00000+0  33813-3 0  9993
2 67481  41.4797  40.4795 0006309 111.1873 248.9641 15.62391867272664
2025-313BE              
1 67482U 25313BE  26036.72310125  .00103503  00000+0  40965-2 0  9996
2 67482  97.4069 113.6274 0008903 100.3384 259.8858 15.24973835  3091
ION SCV-021             
1 67483U 25276DT  26034.18636465  .00001099  00000+0  99302-4 0  9999
2 67483  97.5400 109.5002 0011491 211.3853 148.6685 14.97380347  2557
STARLINK-36551          
1 67493U 26012A   26037.50002314 -.01970426  00000+0 -17710-1 0  9990
2 67493  42.9985 132.8297 0001404 286.7328 144.5149 15.70392054  4058
STARLINK-36396          
1 67494U 26012B   26037.50002314 -.02382559  00000+0 -37238-1 0  9993
2 67494  42.9992 133.2611 0001183 270.3907 347.1242 15.56629224  4059
STARLINK-36550          
1 67495U 26012C   26037.50002314 -.02395734  00000+0 -25891-1 0  9995
2 67495  42.9990 132.9321 0001363 284.4159 105.7264 15.66061633  4054
STARLINK-36534          
1 67496U 26012D   26037.50002314 -.01974375  00000+0 -18420-1 0  9999
2 67496  42.9987 132.8140 0001299 288.6284 148.7828 15.69514645  3996
STARLINK-36555          
1 67497U 26012E   26037.50002314 -.01972965  00000+0 -18473-1 0  9991
2 67497  42.9986 132.8281 0001349 289.7809 142.1148 15.69425549  4058
STARLINK-36081          
1 67498U 26012F   26037.50002314 -.02391341  00000+0 -26371-1 0  9992
2 67498  42.9991 132.9135 0001420 284.0037 113.3497 15.65557720  3997
STARLINK-36558          
1 67499U 26012G   26037.50002314 -.02406166  00000+0 -26559-1 0  9993
2 67499  42.9994 132.9068 0001334 288.4620 111.5644 15.65557466  4055
