CCSDS_OMM_VERS = 2.0
CREATION_DATE  = 
ORIGINATOR     = 

OBJECT_NAME    = TIANQI-39
OBJECT_ID      = 2026-010C
CENTER_NAME    = EARTH
REF_FRAME      = TEME
TIME_SYSTEM    = UTC
MEAN_ELEMENT_THEORY = SGP/SGP4

EPOCH          = 2026-02-06T07:10:29.596224
MEAN_MOTION    = 14.13053936
ECCENTRICITY   = .0016496
INCLINATION    = 44.9842
RA_OF_ASC_NODE = 305.6745
ARG_OF_PERICENTER = 72.1862
MEAN_ANOMALY   = 288.0775

EPHEMERIS_TYPE = 0
CLASSIFICATION_TYPE = U
NORAD_CAT_ID   = 67478
ELEMENT_SET_NO = 999
REV_AT_EPOCH   = 304
BSTAR          = .26541E-3
MEAN_MOTION_DOT = .366E-5
MEAN_MOTION_DDOT = 0

CCSDS_OMM_VERS = 2.0
CREATION_DATE  = 
ORIGINATOR     = 

OBJECT_NAME    = TIANQI-40
OBJECT_ID      = 2026-010D
CENTER_NAME    = EARTH
REF_FRAME      = TEME
TIME_SYSTEM    = UTC
MEAN_ELEMENT_THEORY = SGP/SGP4

EPOCH          = 2026-02-06T07:04:39.969984
MEAN_MOTION    = 14.13802640
ECCENTRICITY   = .0012363
INCLINATION    = 44.9837
RA_OF_ASC_NODE = 305.6492
ARG_OF_PERICENTER = 73.1190
MEAN_ANOMALY   = 287.1003

EPHEMERIS_TYPE = 0
CLASSIFICATION_TYPE = U
NORAD_CAT_ID   = 67479
ELEMENT_SET_NO = 999
REV_AT_EPOCH   = 304
BSTAR          = .29034E-3
MEAN_MOTION_DOT = .42E-5
MEAN_MOTION_DDOT = 0

CCSDS_OMM_VERS = 2.0
CREATION_DATE  = 
ORIGINATOR     = 

OBJECT_NAME    = SZ-20 MODULE
OBJECT_ID      = 2025-082C
CENTER_NAME    = EARTH
REF_FRAME      = TEME
TIME_SYSTEM    = UTC
MEAN_ELEMENT_THEORY = SGP/SGP4

EPOCH          = 2026-02-06T00:09:17.210016
MEAN_MOTION    = 15.62391867
ECCENTRICITY   = .00063092
INCLINATION    = 41.4797
RA_OF_ASC_NODE = 40.4795
ARG_OF_PERICENTER = 111.1873
MEAN_ANOMALY   = 248.9641

EPHEMERIS_TYPE = 0
CLASSIFICATION_TYPE = U
NORAD_CAT_ID   = 67481
ELEMENT_SET_NO = 999
REV_AT_EPOCH   = 27266
BSTAR          = .33813279E-3
MEAN_MOTION_DOT = .30646E-3
MEAN_MOTION_DDOT = 0

CCSDS_OMM_VERS = 2.0
CREATION_DATE  = 
ORIGINATOR     = 

OBJECT_NAME    = 2025-313BE
OBJECT_ID      = 2025-313BE
CENTER_NAME    = EARTH
REF_FRAME      = TEME
TIME_SYSTEM    = UTC
MEAN_ELEMENT_THEORY = SGP/SGP4

EPOCH          = 2026-02-05T17:21:15.948000
MEAN_MOTION    = 15.24973835
ECCENTRICITY   = .00089038
INCLINATION    = 97.4069
RA_OF_ASC_NODE = 113.6274
ARG_OF_PERICENTER = 100.3384
MEAN_ANOMALY   = 259.8858

EPHEMERIS_TYPE = 0
CLASSIFICATION_TYPE = U
NORAD_CAT_ID   = 67482
ELEMENT_SET_NO = 999
REV_AT_EPOCH   = 309
BSTAR          = .40964846E-2
MEAN_MOTION_DOT = .103503E-2
MEAN_MOTION_DDOT = 0

CCSDS_OMM_VERS = 2.0
CREATION_DATE  = 
ORIGINATOR     = 

OBJECT_NAME    = ION SCV-021
OBJECT_ID      = 2025-276DT
CENTER_NAME    = EARTH
REF_FRAME      = TEME
TIME_SYSTEM    = UTC
MEAN_ELEMENT_THEORY = SGP/SGP4

EPOCH          = 2026-02-03T04:28:21.905760
MEAN_MOTION    = 14.97380347
ECCENTRICITY   = .0011491
INCLINATION    = 97.5400
RA_OF_ASC_NODE = 109.5002
ARG_OF_PERICENTER = 211.3853
MEAN_ANOMALY   = 148.6685

EPHEMERIS_TYPE = 0
CLASSIFICATION_TYPE = U
NORAD_CAT_ID   = 67483
ELEMENT_SET_NO = 999
REV_AT_EPOCH   = 255
BSTAR          = .99302135E-4
MEAN_MOTION_DOT = .1099E-4
MEAN_MOTION_DDOT = 0

CCSDS_OMM_VERS = 2.0
CREATION_DATE  = 
ORIGINATOR     = 

OBJECT_NAME    = STARLINK-36551
OBJECT_ID      = 2026-012A
CENTER_NAME    = EARTH
REF_FRAME      = TEME
TIME_SYSTEM    = UTC
MEAN_ELEMENT_THEORY = SGP/SGP4

EPOCH          = 2026-02-06T12:00:01.999296
MEAN_MOTION    = 15.70392054
ECCENTRICITY   = .0001404
INCLINATION    = 42.9985
RA_OF_ASC_NODE = 132.8297
ARG_OF_PERICENTER = 286.7328
MEAN_ANOMALY   = 144.5149

EPHEMERIS_TYPE = 0
CLASSIFICATION_TYPE = U
NORAD_CAT_ID   = 67493
ELEMENT_SET_NO = 999
REV_AT_EPOCH   = 405
BSTAR          = -.1771E-1
MEAN_MOTION_DOT = -.1970426E-1
MEAN_MOTION_DDOT = 0

CCSDS_OMM_VERS = 2.0
CREATION_DATE  = 
ORIGINATOR     = 

OBJECT_NAME    = STARLINK-36396
OBJECT_ID      = 2026-012B
CENTER_NAME    = EARTH
REF_FRAME      = TEME
TIME_SYSTEM    = UTC
MEAN_ELEMENT_THEORY = SGP/SGP4

EPOCH          = 2026-02-06T12:00:01.999296
MEAN_MOTION    = 15.56629224
ECCENTRICITY   = .0001183
INCLINATION    = 42.9992
RA_OF_ASC_NODE = 133.2611
ARG_OF_PERICENTER = 270.3907
MEAN_ANOMALY   = 347.1242

EPHEMERIS_TYPE = 0
CLASSIFICATION_TYPE = U
NORAD_CAT_ID   = 67494
ELEMENT_SET_NO = 999
REV_AT_EPOCH   = 405
BSTAR          = -.37238E-1
MEAN_MOTION_DOT = -.2382559E-1
MEAN_MOTION_DDOT = 0

CCSDS_OMM_VERS = 2.0
CREATION_DATE  = 
ORIGINATOR     = 

OBJECT_NAME    = STARLINK-36550
OBJECT_ID      = 2026-012C
CENTER_NAME    = EARTH
REF_FRAME      = TEME
TIME_SYSTEM    = UTC
MEAN_ELEMENT_THEORY = SGP/SGP4

EPOCH          = 2026-02-06T12:00:01.999296
MEAN_MOTION    = 15.66061633
ECCENTRICITY   = .0001363
INCLINATION    = 42.9990
RA_OF_ASC_NODE = 132.9321
ARG_OF_PERICENTER = 284.4159
MEAN_ANOMALY   = 105.7264

EPHEMERIS_TYPE = 0
CLASSIFICATION_TYPE = U
NORAD_CAT_ID   = 67495
ELEMENT_SET_NO = 999
REV_AT_EPOCH   = 405
BSTAR          = -.25891E-1
MEAN_MOTION_DOT = -.2395734E-1
MEAN_MOTION_DDOT = 0

CCSDS_OMM_VERS = 2.0
CREATION_DATE  = 
ORIGINATOR     = 

OBJECT_NAME    = STARLINK-36534
OBJECT_ID      = 2026-012D
CENTER_NAME    = EARTH
REF_FRAME      = TEME
TIME_SYSTEM    = UTC
MEAN_ELEMENT_THEORY = SGP/SGP4

EPOCH          = 2026-02-06T12:00:01.999296
MEAN_MOTION    = 15.69514645
ECCENTRICITY   = .0001299
INCLINATION    = 42.9987
RA_OF_ASC_NODE = 132.8140
ARG_OF_PERICENTER = 288.6284
MEAN_ANOMALY   = 148.7828

EPHEMERIS_TYPE = 0
CLASSIFICATION_TYPE = U
NORAD_CAT_ID   = 67496
ELEMENT_SET_NO = 999
REV_AT_EPOCH   = 399
BSTAR          = -.1842E-1
MEAN_MOTION_DOT = -.1974375E-1
MEAN_MOTION_DDOT = 0

CCSDS_OMM_VERS = 2.0
CREATION_DATE  = 
ORIGINATOR     = 

OBJECT_NAME    = STARLINK-36555
OBJECT_ID      = 2026-012E
CENTER_NAME    = EARTH
REF_FRAME      = TEME
TIME_SYSTEM    = UTC
MEAN_ELEMENT_THEORY = SGP/SGP4

EPOCH          = 2026-02-06T12:00:01.999296
MEAN_MOTION    = 15.69425549
ECCENTRICITY   = .0001349
INCLINATION    = 42.9986
RA_OF_ASC_NODE = 132.8281
ARG_OF_PERICENTER = 289.7809
MEAN_ANOMALY   = 142.1148

EPHEMERIS_TYPE = 0
CLASSIFICATION_TYPE = U
NORAD_CAT_ID   = 67497
ELEMENT_SET_NO = 999
REV_AT_EPOCH   = 405
BSTAR          = -.18473E-1
MEAN_MOTION_DOT = -.1972965E-1
MEAN_MOTION_DDOT = 0

CCSDS_OMM_VERS = 2.0
CREATION_DATE  = 
ORIGINATOR     = 

OBJECT_NAME    = STARLINK-36081
OBJECT_ID      = 2026-012F
CENTER_NAME    = EARTH
REF_FRAME      = TEME
TIME_SYSTEM    = UTC
MEAN_ELEMENT_THEORY = SGP/SGP4

EPOCH          = 2026-02-06T12:00:01.999296
MEAN_MOTION    = 15.65557720
ECCENTRICITY   = .000142
INCLINATION    = 42.9991
RA_OF_ASC_NODE = 132.9135
ARG_OF_PERICENTER = 284.0037
MEAN_ANOMALY   = 113.3497

EPHEMERIS_TYPE = 0
CLASSIFICATION_TYPE = U
NORAD_CAT_ID   = 67498
ELEMENT_SET_NO = 999
REV_AT_EPOCH   = 399
BSTAR          = -.26371E-1
MEAN_MOTION_DOT = -.2391341E-1
MEAN_MOTION_DDOT = 0

CCSDS_OMM_VERS = 2.0
CREATION_DATE  = 
ORIGINATOR     = 

OBJECT_NAME    = STARLINK-36558
OBJECT_ID      = 2026-012G
CENTER_NAME    = EARTH
REF_FRAME      = TEME
TIME_SYSTEM    = UTC
MEAN_ELEMENT_THEORY = SGP/SGP4

EPOCH          = 2026-02-06T12:00:01.999296
MEAN_MOTION    = 15.65557466
ECCENTRICITY   = .0001334
INCLINATION    = 42.9994
RA_OF_ASC_NODE = 132.9068
ARG_OF_PERICENTER = 288.4620
MEAN_ANOMALY   = 111.5644

EPHEMERIS_TYPE = 0
CLASSIFICATION_TYPE = U
NORAD_CAT_ID   = 67499
ELEMENT_SET_NO = 999
REV_AT_EPOCH   = 405
BSTAR          = -.26559E-1
MEAN_MOTION_DOT = -.2406166E-1
MEAN_MOTION_DDOT = 0

